[{"OBJECT_NAME":"STARLINK-5337","OBJECT_ID":"2023-010R","EPOCH":"2025-11-10T19:31:37.799616","MEAN_MOTION":14.98336179,"ECCENTRICITY":0.00029893,"INCLINATION":69.9995,"RA_OF_ASC_NODE":344.0135,"ARG_OF_PERICENTER":271.7863,"MEAN_ANOMALY":88.2954,"EPHEMERIS_TYPE":0,"CLASSIFICATION_TYPE":"U","NORAD_CAT_ID":55284,"ELEMENT_SET_NO":999,"REV_AT_EPOCH":15496,"BSTAR":6.1644327e-5,"MEAN_MOTION_DOT":6.43e-6,"MEAN_MOTION_DDOT":0},{"OBJECT_NAME":"STARLINK-5332","OBJECT_ID":"2023-010S","EPOCH":"2025-11-10T17:19:00.388992","MEAN_MOTION":14.98342999,"ECCENTRICITY":0.00036914,"INCLINATION":69.9979,"RA_OF_ASC_NODE":304.3371,"ARG_OF_PERICENTER":267.3867,"MEAN_ANOMALY":92.687,"EPHEMERIS_TYPE":0,"CLASSIFICATION_TYPE":"U","NORAD_CAT_ID":55285,"ELEMENT_SET_NO":999,"REV_AT_EPOCH":15682,"BSTAR":0.00019898292,"MEAN_MOTION_DOT":2.283e-5,"MEAN_MOTION_DDOT":0},{"OBJECT_NAME":"STARLINK-5338","OBJECT_ID":"2023-010T","EPOCH":"2025-11-10T18:19:13.732896","MEAN_MOTION":14.98345245,"ECCENTRICITY":0.00029691,"INCLINATION":69.9999,"RA_OF_ASC_NODE":324.374,"ARG_OF_PERICENTER":275.2031,"MEAN_ANOMALY":84.8789,"EPHEMERIS_TYPE":0,"CLASSIFICATION_TYPE":"U","NORAD_CAT_ID":55286,"ELEMENT_SET_NO":999,"REV_AT_EPOCH":15545,"BSTAR":0.00029448356,"MEAN_MOTION_DOT":3.424e-5,"MEAN_MOTION_DDOT":0},{"OBJECT_NAME":"STARLINK-5341","OBJECT_ID":"2023-010U","EPOCH":"2025-11-10T16:54:46.472256","MEAN_MOTION":14.98328688,"ECCENTRICITY":0.0002997,"INCLINATION":69.9985,"RA_OF_ASC_NODE":304.6049,"ARG_OF_PERICENTER":270.5689,"MEAN_ANOMALY":89.5127,"EPHEMERIS_TYPE":0,"CLASSIFICATION_TYPE":"U","NORAD_CAT_ID":55287,"ELEMENT_SET_NO":999,"REV_AT_EPOCH":15593,"BSTAR":-1.8165078e-5,"MEAN_MOTION_DOT":-3.1e-6,"MEAN_MOTION_DDOT":0},{"OBJECT_NAME":"STARLINK-5311","OBJECT_ID":"2023-010V","EPOCH":"2025-11-10T18:01:25.171392","MEAN_MOTION":14.98331278,"ECCENTRICITY":0.00030919,"INCLINATION":69.999,"RA_OF_ASC_NODE":324.328,"ARG_OF_PERICENTER":270.2202,"MEAN_ANOMALY":89.8602,"EPHEMERIS_TYPE":0,"CLASSIFICATION_TYPE":"U","NORAD_CAT_ID":55288,"ELEMENT_SET_NO":999,"REV_AT_EPOCH":15545,"BSTAR":5.701124e-6,"MEAN_MOTION_DOT":-2.5e-7,"MEAN_MOTION_DDOT":0},{"OBJECT_NAME":"STARLINK-5320","OBJECT_ID":"2023-010W","EPOCH":"2025-11-10T10:24:33.765696","MEAN_MOTION":14.98340461,"ECCENTRICITY":0.00031217,"INCLINATION":69.9981,"RA_OF_ASC_NODE":325.229,"ARG_OF_PERICENTER":264.3609,"MEAN_ANOMALY":95.7194,"EPHEMERIS_TYPE":0,"CLASSIFICATION_TYPE":"U","NORAD_CAT_ID":55289,"ELEMENT_SET_NO":999,"REV_AT_EPOCH":15540,"BSTAR":9.0734963e-5,"MEAN_MOTION_DOT":9.9e-6,"MEAN_MOTION_DDOT":0},{"OBJECT_NAME":"STARLINK-5266","OBJECT_ID":"2023-010X","EPOCH":"2025-11-10T18:13:11.971776","MEAN_MOTION":14.9833648,"ECCENTRICITY":0.00034222,"INCLINATION":69.9982,"RA_OF_ASC_NODE":324.3581,"ARG_OF_PERICENTER":265.4712,"MEAN_ANOMALY":94.6056,"EPHEMERIS_TYPE":0,"CLASSIFICATION_TYPE":"U","NORAD_CAT_ID":55290,"ELEMENT_SET_NO":999,"REV_AT_EPOCH":15545,"BSTAR":-0.00020031748,"MEAN_MOTION_DOT":-2.483e-5,"MEAN_MOTION_DDOT":0},{"OBJECT_NAME":"STARLINK-5327","OBJECT_ID":"2023-010Y","EPOCH":"2025-11-10T18:37:16.028544","MEAN_MOTION":14.98325859,"ECCENTRICITY":0.00029953,"INCLINATION":69.9988,"RA_OF_ASC_NODE":324.4132,"ARG_OF_PERICENTER":264.3621,"MEAN_ANOMALY":95.7197,"EPHEMERIS_TYPE":0,"CLASSIFICATION_TYPE":"U","NORAD_CAT_ID":55291,"ELEMENT_SET_NO":999,"REV_AT_EPOCH":15545,"BSTAR":5.24633e-7,"MEAN_MOTION_DOT":-8.7e-7,"MEAN_MOTION_DDOT":0},{"OBJECT_NAME":"STARLINK-5325","OBJECT_ID":"2023-010Z","EPOCH":"2025-11-10T17:55:10.230816","MEAN_MOTION":14.983456,"ECCENTRICITY":0.00033844,"INCLINATION":70.0004,"RA_OF_ASC_NODE":324.3123,"ARG_OF_PERICENTER":270.392,"MEAN_ANOMALY":89.6851,"EPHEMERIS_TYPE":0,"CLASSIFICATION_TYPE":"U","NORAD_CAT_ID":55292,"ELEMENT_SET_NO":999,"REV_AT_EPOCH":15545,"BSTAR":0.00013519761,"MEAN_MOTION_DOT":1.521e-5,"MEAN_MOTION_DDOT":0},{"OBJECT_NAME":"STARLINK-5287","OBJECT_ID":"2023-010AA","EPOCH":"2025-11-10T18:01:10.946496","MEAN_MOTION":14.98330968,"ECCENTRICITY":0.00030551,"INCLINATION":69.999,"RA_OF_ASC_NODE":324.328,"ARG_OF_PERICENTER":272.6625,"MEAN_ANOMALY":87.4185,"EPHEMERIS_TYPE":0,"CLASSIFICATION_TYPE":"U","NORAD_CAT_ID":55293,"ELEMENT_SET_NO":999,"REV_AT_EPOCH":15545,"BSTAR":2.9157159e-5,"MEAN_MOTION_DOT":2.55e-6,"MEAN_MOTION_DDOT":0},{"OBJECT_NAME":"STARLINK-5286","OBJECT_ID":"2023-010AB","EPOCH":"2025-11-10T11:42:58.679424","MEAN_MOTION":14.98334543,"ECCENTRICITY":0.00029176,"INCLINATION":69.9994,"RA_OF_ASC_NODE":344.8836,"ARG_OF_PERICENTER":267.8531,"MEAN_ANOMALY":92.2294,"EPHEMERIS_TYPE":0,"CLASSIFICATION_TYPE":"U","NORAD_CAT_ID":55294,"ELEMENT_SET_NO":999,"REV_AT_EPOCH":15492,"BSTAR":-7.5237351e-5,"MEAN_MOTION_DOT":-9.91e-6,"MEAN_MOTION_DDOT":0},{"OBJECT_NAME":"STARLINK-5293","OBJECT_ID":"2023-010AC","EPOCH":"2025-11-10T19:07:37.152192","MEAN_MOTION":14.98332072,"ECCENTRICITY":0.00035633,"INCLINATION":70.0001,"RA_OF_ASC_NODE":344.3606,"ARG_OF_PERICENTER":270.0815,"MEAN_ANOMALY":89.9936,"EPHEMERIS_TYPE":0,"CLASSIFICATION_TYPE":"U","NORAD_CAT_ID":55295,"ELEMENT_SET_NO":999,"REV_AT_EPOCH":15497,"BSTAR":2.62495e-7,"MEAN_MOTION_DOT":-9.0e-7,"MEAN_MOTION_DDOT":0},{"OBJECT_NAME":"STARLINK-5285","OBJECT_ID":"2023-010AD","EPOCH":"2025-11-10T17:37:09.192288","MEAN_MOTION":14.98328688,"ECCENTRICITY":0.00031525,"INCLINATION":69.9985,"RA_OF_ASC_NODE":324.2679,"ARG_OF_PERICENTER":273.7127,"MEAN_ANOMALY":86.3672,"EPHEMERIS_TYPE":0,"CLASSIFICATION_TYPE":"U","NORAD_CAT_ID":55296,"ELEMENT_SET_NO":999,"REV_AT_EPOCH":15633,"BSTAR":4.5165997e-5,"MEAN_MOTION_DOT":4.46e-6,"MEAN_MOTION_DDOT":0},{"OBJECT_NAME":"STARLINK-5284","OBJECT_ID":"2023-010AE","EPOCH":"2025-11-10T17:49:09.628320","MEAN_MOTION":14.98331467,"ECCENTRICITY":0.00029679,"INCLINATION":69.999,"RA_OF_ASC_NODE":324.2982,"ARG_OF_PERICENTER":270.7102,"MEAN_ANOMALY":89.3717,"EPHEMERIS_TYPE":0,"CLASSIFICATION_TYPE":"U","NORAD_CAT_ID":55297,"ELEMENT_SET_NO":999,"REV_AT_EPOCH":15545,"BSTAR":1.542009e-5,"MEAN_MOTION_DOT":9.1e-7,"MEAN_MOTION_DDOT":0},{"OBJECT_NAME":"STARLINK-5270","OBJECT_ID":"2023-010AG","EPOCH":"2025-11-10T17:31:08.636448","MEAN_MOTION":14.98328169,"ECCENTRICITY":0.00031284,"INCLINATION":69.9985,"RA_OF_ASC_NODE":324.2545,"ARG_OF_PERICENTER":270.8661,"MEAN_ANOMALY":89.214,"EPHEMERIS_TYPE":0,"CLASSIFICATION_TYPE":"U","NORAD_CAT_ID":55299,"ELEMENT_SET_NO":999,"REV_AT_EPOCH":15633,"BSTAR":3.9247521e-5,"MEAN_MOTION_DOT":3.75e-6,"MEAN_MOTION_DDOT":0},{"OBJECT_NAME":"STARLINK-5308","OBJECT_ID":"2023-010AH","EPOCH":"2025-11-10T11:00:34.784352","MEAN_MOTION":14.98342176,"ECCENTRICITY":0.00031266,"INCLINATION":69.9984,"RA_OF_ASC_NODE":324.9125,"ARG_OF_PERICENTER":267.5056,"MEAN_ANOMALY":92.5745,"EPHEMERIS_TYPE":0,"CLASSIFICATION_TYPE":"U","NORAD_CAT_ID":55300,"ELEMENT_SET_NO":999,"REV_AT_EPOCH":15541,"BSTAR":0.00011889051,"MEAN_MOTION_DOT":1.326e-5,"MEAN_MOTION_DDOT":0},{"OBJECT_NAME":"STARLINK-5321","OBJECT_ID":"2023-010AK","EPOCH":"2025-11-10T11:18:36.753408","MEAN_MOTION":14.98332453,"ECCENTRICITY":0.00030231,"INCLINATION":69.999,"RA_OF_ASC_NODE":324.953,"ARG_OF_PERICENTER":269.7823,"MEAN_ANOMALY":90.299,"EPHEMERIS_TYPE":0,"CLASSIFICATION_TYPE":"U","NORAD_CAT_ID":55302,"ELEMENT_SET_NO":999,"REV_AT_EPOCH":15541,"BSTAR":4.4046498e-5,"MEAN_MOTION_DOT":4.33e-6,"MEAN_MOTION_DDOT":0},{"OBJECT_NAME":"STARLINK-5322","OBJECT_ID":"2023-010AL","EPOCH":"2025-11-10T13:01:04.444320","MEAN_MOTION":14.98328731,"ECCENTRICITY":0.00031378,"INCLINATION":69.9992,"RA_OF_ASC_NODE":344.6726,"ARG_OF_PERICENTER":265.9257,"MEAN_ANOMALY":94.1543,"EPHEMERIS_TYPE":0,"CLASSIFICATION_TYPE":"U","NORAD_CAT_ID":55303,"ELEMENT_SET_NO":999,"REV_AT_EPOCH":15493,"BSTAR":0.00012198157,"MEAN_MOTION_DOT":1.363e-5,"MEAN_MOTION_DDOT":0},{"OBJECT_NAME":"STARLINK-5318","OBJECT_ID":"2023-010AM","EPOCH":"2025-11-10T10:54:35.276544","MEAN_MOTION":14.98326685,"ECCENTRICITY":0.00031038,"INCLINATION":69.9983,"RA_OF_ASC_NODE":324.8977,"ARG_OF_PERICENTER":270.8145,"MEAN_ANOMALY":89.2658,"EPHEMERIS_TYPE":0,"CLASSIFICATION_TYPE":"U","NORAD_CAT_ID":55304,"ELEMENT_SET_NO":999,"REV_AT_EPOCH":15541,"BSTAR":0.00011451958,"MEAN_MOTION_DOT":1.274e-5,"MEAN_MOTION_DDOT":0},{"OBJECT_NAME":"STARLINK-5316","OBJECT_ID":"2023-010AN","EPOCH":"2025-11-10T10:48:36.013248","MEAN_MOTION":14.98336709,"ECCENTRICITY":0.00028828,"INCLINATION":69.9987,"RA_OF_ASC_NODE":325.2868,"ARG_OF_PERICENTER":267.5911,"MEAN_ANOMALY":92.4918,"EPHEMERIS_TYPE":0,"CLASSIFICATION_TYPE":"U","NORAD_CAT_ID":55305,"ELEMENT_SET_NO":999,"REV_AT_EPOCH":15541,"BSTAR":-0.00011101254,"MEAN_MOTION_DOT":-1.418e-5,"MEAN_MOTION_DDOT":0},{"OBJECT_NAME":"STARLINK-5295","OBJECT_ID":"2023-010AP","EPOCH":"2025-11-10T16:30:43.868736","MEAN_MOTION":14.98347372,"ECCENTRICITY":0.00030757,"INCLINATION":69.9982,"RA_OF_ASC_NODE":304.6348,"ARG_OF_PERICENTER":272.7328,"MEAN_ANOMALY":87.3479,"EPHEMERIS_TYPE":0,"CLASSIFICATION_TYPE":"U","NORAD_CAT_ID":55306,"ELEMENT_SET_NO":999,"REV_AT_EPOCH":15594,"BSTAR":-0.00027877056,"MEAN_MOTION_DOT":-3.419e-5,"MEAN_MOTION_DDOT":0},{"OBJECT_NAME":"STARLINK-5288","OBJECT_ID":"2023-010AQ","EPOCH":"2025-11-10T23:01:17.753664","MEAN_MOTION":14.98327991,"ECCENTRICITY":0.0002897,"INCLINATION":69.9977,"RA_OF_ASC_NODE":303.9764,"ARG_OF_PERICENTER":270.055,"MEAN_ANOMALY":90.0277,"EPHEMERIS_TYPE":0,"CLASSIFICATION_TYPE":"U","NORAD_CAT_ID":55307,"ELEMENT_SET_NO":999,"REV_AT_EPOCH":15598,"BSTAR":0.00011502204,"MEAN_MOTION_DOT":1.28e-5,"MEAN_MOTION_DDOT":0},{"OBJECT_NAME":"STARLINK-5315","OBJECT_ID":"2023-010AS","EPOCH":"2025-11-10T17:00:45.200736","MEAN_MOTION":14.98331184,"ECCENTRICITY":0.00030314,"INCLINATION":69.9981,"RA_OF_ASC_NODE":304.3068,"ARG_OF_PERICENTER":270.241,"MEAN_ANOMALY":89.8402,"EPHEMERIS_TYPE":0,"CLASSIFICATION_TYPE":"U","NORAD_CAT_ID":55309,"ELEMENT_SET_NO":999,"REV_AT_EPOCH":15595,"BSTAR":-1.4263657e-5,"MEAN_MOTION_DOT":-2.63e-6,"MEAN_MOTION_DDOT":0}]
